{"type": "FeatureCollection", "features": [ {"type": "Feature", "properties": {"norad_id": 43437, "name": "SENTINEL-3B", "group": "resource", "lat": -81.35109798959388, "lon": 150.5518864704917, "alt_km": 811.1278319535177, "timestamp": "2025-12-25T07:41:09.380638+00:00", "meta": {"OBJECT_NAME": "SENTINEL-3B", "OBJECT_ID": "2018-039A", "EPOCH": "2025-12-24T22:00:21.623616", "MEAN_MOTION": 14.26738665, "ECCENTRICITY": 0.00015914, "INCLINATION": 98.625, "RA_OF_ASC_NODE": 63.9267, "ARG_OF_PERICENTER": 89.6451, "MEAN_ANOMALY": 270.4911, "EPHEMERIS_TYPE": 0, "CLASSIFICATION_TYPE": "U", "NORAD_CAT_ID": 43437, "ELEMENT_SET_NO": 999, "REV_AT_EPOCH": 39927, "BSTAR": 7.868325e-05, "MEAN_MOTION_DOT": 1.47e-06, "MEAN_MOTION_DDOT": 0}, "tle": {"line1": "1 43437U 18039A   25358.91691694  .00000147  00000+0  78683-4 0  9997", "line2": "2 43437  98.6250  63.9267 0001591  89.6451 270.4911 14.26738665399277"}}, "geometry": {"type": "Point", "coordinates": [150.5518864704917, -81.35109798959388]}}, {"type": "Feature", "properties": {"norad_id": 43461, "name": "GAOFEN-5 01", "group": "resource", "lat": -17.151487175002103, "lon": -34.86700361281406, "alt_km": 696.7833970378524, "timestamp": "2025-12-25T07:41:09.380651+00:00", "meta": {"OBJECT_NAME": "GAOFEN-5 01", "OBJECT_ID": "2018-043A", "EPOCH": "2025-12-24T20:15:17.532288", "MEAN_MOTION": 14.60422427, "ECCENTRICITY": 5.289e-05, "INCLINATION": 98.4345, "RA_OF_ASC_NODE": 322.0236, "ARG_OF_PERICENTER": 244.9883, "MEAN_ANOMALY": 115.1262, "EPHEMERIS_TYPE": 0, "CLASSIFICATION_TYPE": "U", "NORAD_CAT_ID": 43461, "ELEMENT_SET_NO": 999, "REV_AT_EPOCH": 40624, "BSTAR": 0.00010643871, "MEAN_MOTION_DOT": 4.67e-06, "MEAN_MOTION_DDOT": 0}, "tle": {"line1": "1 43461U 18043A   25358.84395292  .00000467  00000+0  10644-3 0  9993", "line2": "2 43461  98.4345 322.0236 0000528 244.9883 115.1262 14.60422427406240"}}, "geometry": {"type": "Point", "coordinates": [-34.86700361281406, -17.151487175002103]}}, {"type": "Feature", "properties": {"norad_id": 43484, "name": "GAOFEN-6", "group": "resource", "lat": -11.650826649865458, "lon": 64.7836131838284, "alt_km": 637.5445958626615, "timestamp": "2025-12-25T07:41:09.380663+00:00", "meta": {"OBJECT_NAME": "GAOFEN-6", "OBJECT_ID": "2018-048A", "EPOCH": "2025-12-24T23:36:25.804800", "MEAN_MOTION": 14.76586031, "ECCENTRICITY": 0.00125803, "INCLINATION": 97.8012, "RA_OF_ASC_NODE": 62.8385, "ARG_OF_PERICENTER": 27.2845, "MEAN_ANOMALY": 332.9024, "EPHEMERIS_TYPE": 0, "CLASSIFICATION_TYPE": "U", "NORAD_CAT_ID": 43484, "ELEMENT_SET_NO": 999, "REV_AT_EPOCH": 40768, "BSTAR": 7.4237702e-05, "MEAN_MOTION_DOT": 4.69e-06, "MEAN_MOTION_DDOT": 0}, "tle": {"line1": "1 43484U 18048A   25358.98363200  .00000469  00000+0  74238-4 0  9994", "line2": "2 43484  97.8012  62.8385 0012580  27.2845 332.9024 14.76586031407687"}}, "geometry": {"type": "Point", "coordinates": [64.7836131838284, -11.650826649865458]}}, {"type": "Feature", "properties": {"norad_id": 43585, "name": "GAOFEN-11 01", "group": "resource", "lat": -27.10679565567228, "lon": -121.53608654045101, "alt_km": 421.8988637942348, "timestamp": "2025-12-25T07:41:09.380674+00:00", "meta": {"OBJECT_NAME": "GAOFEN-11 01", "OBJECT_ID": "2018-063A", "EPOCH": "2025-12-24T23:02:41.131392", "MEAN_MOTION": 15.49547866, "ECCENTRICITY": 0.0003918, "INCLINATION": 97.1543, "RA_OF_ASC_NODE": 61.7932, "ARG_OF_PERICENTER": 249.5606, "MEAN_ANOMALY": 110.5226, "EPHEMERIS_TYPE": 0, "CLASSIFICATION_TYPE": "U", "NORAD_CAT_ID": 43585, "ELEMENT_SET_NO": 999, "REV_AT_EPOCH": 41331, "BSTAR": 0.00012184883, "MEAN_MOTION_DOT": 6.629e-05, "MEAN_MOTION_DDOT": 0}, "tle": {"line1": "1 43585U 18063A   25358.96019828  .00006629  00000+0  12185-3 0  9991", "line2": "2 43585  97.1543  61.7932 0003918 249.5606 110.5226 15.49547866413311"}}, "geometry": {"type": "Point", "coordinates": [-121.53608654045101, -27.10679565567228]}}, {"type": "Feature", "properties": {"norad_id": 43613, "name": "ICESAT-2", "group": "resource", "lat": 64.6177933163005, "lon": -120.09914886490665, "alt_km": 473.37261353825124, "timestamp": "2025-12-25T07:41:09.380689+00:00", "meta": {"OBJECT_NAME": "ICESAT-2", "OBJECT_ID": "2018-070A", "EPOCH": "2025-12-24T20:24:11.287296", "MEAN_MOTION": 15.28224917, "ECCENTRICITY": 0.00030562, "INCLINATION": 92.0036, "RA_OF_ASC_NODE": 244.0056, "ARG_OF_PERICENTER": 109.5368, "MEAN_ANOMALY": 250.6211, "EPHEMERIS_TYPE": 0, "CLASSIFICATION_TYPE": "U", "NORAD_CAT_ID": 43613, "ELEMENT_SET_NO": 999, "REV_AT_EPOCH": 40583, "BSTAR": 0.00047730707, "MEAN_MOTION_DOT": 0.00013129, "MEAN_MOTION_DDOT": 0}, "tle": {"line1": "1 43613U 18070A   25358.85013064  .00013129  00000+0  47731-3 0  9993", "line2": "2 43613  92.0036 244.0056 0003056 109.5368 250.6211 15.28224917405834"}}, "geometry": {"type": "Point", "coordinates": [-120.09914886490665, 64.6177933163005]}}, {"type": "Feature", "properties": {"norad_id": 43719, "name": "HYSIS", "group": "resource", "lat": 60.641160839419754, "lon": -103.27164672210846, "alt_km": 627.3296885073669, "timestamp": "2025-12-25T07:41:09.380700+00:00", "meta": {"OBJECT_NAME": "HYSIS", "OBJECT_ID": "2018-096A", "EPOCH": "2025-12-24T23:01:57.582336", "MEAN_MOTION": 14.78677949, "ECCENTRICITY": 8.535e-05, "INCLINATION": 98.0079, "RA_OF_ASC_NODE": 61.8769, "ARG_OF_PERICENTER": 57.4747, "MEAN_ANOMALY": 302.6546, "EPHEMERIS_TYPE": 0, "CLASSIFICATION_TYPE": "U", "NORAD_CAT_ID": 43719, "ELEMENT_SET_NO": 999, "REV_AT_EPOCH": 38167, "BSTAR": 0.00021306259, "MEAN_MOTION_DOT": 1.51e-05, "MEAN_MOTION_DDOT": 0}, "tle": {"line1": "1 43719U 18096A   25358.95969424  .00001510  00000+0  21306-3 0  9990", "line2": "2 43719  98.0079  61.8769 0000853  57.4747 302.6546 14.78677949381679"}}, "geometry": {"type": "Point", "coordinates": [-103.27164672210846, 60.641160839419754]}}, {"type": "Feature", "properties": {"norad_id": 43783, "name": "KAZSTSAT", "group": "resource", "lat": -29.860177222801926, "lon": -150.346723139588, "alt_km": 572.975118014072, "timestamp": "2025-12-25T07:41:09.380711+00:00", "meta": {"OBJECT_NAME": "KAZSTSAT", "OBJECT_ID": "2018-099AB", "EPOCH": "2025-12-24T14:44:04.878240", "MEAN_MOTION": 14.99370759, "ECCENTRICITY": 0.00062643, "INCLINATION": 97.4515, "RA_OF_ASC_NODE": 33.2868, "ARG_OF_PERICENTER": 277.0962, "MEAN_ANOMALY": 82.9549, "EPHEMERIS_TYPE": 0, "CLASSIFICATION_TYPE": "U", "NORAD_CAT_ID": 43783, "ELEMENT_SET_NO": 999, "REV_AT_EPOCH": 38514, "BSTAR": 5.1961687e-05, "MEAN_MOTION_DOT": 5.8e-06, "MEAN_MOTION_DDOT": 0}, "tle": {"line1": "1 43783U 18099AB  25358.61394535  .00000580  00000+0  51962-4 0  9990", "line2": "2 43783  97.4515  33.2868 0006264 277.0962  82.9549 14.99370759385141"}}, "geometry": {"type": "Point", "coordinates": [-150.346723139588, -29.860177222801926]}}, {"type": "Feature", "properties": {"norad_id": 43831, "name": "SAUDISAT 5A", "group": "resource", "lat": 14.848559646773712, "lon": 57.311578330211745, "alt_km": 482.26722684809647, "timestamp": "2025-12-25T07:41:09.380722+00:00", "meta": {"OBJECT_NAME": "SAUDISAT 5A", "OBJECT_ID": "2018-102A", "EPOCH": "2025-12-24T22:10:36.935040", "MEAN_MOTION": 15.25802579, "ECCENTRICITY": 0.00110804, "INCLINATION": 97.3331, "RA_OF_ASC_NODE": 58.8796, "ARG_OF_PERICENTER": 38.3123, "MEAN_ANOMALY": 321.89, "EPHEMERIS_TYPE": 0, "CLASSIFICATION_TYPE": "U", "NORAD_CAT_ID": 43831, "ELEMENT_SET_NO": 999, "REV_AT_EPOCH": 38908, "BSTAR": 0.00026898309, "MEAN_MOTION_DOT": 6.816e-05, "MEAN_MOTION_DDOT": 0}, "tle": {"line1": "1 43831U 18102A   25358.92403860  .00006816  00000+0  26898-3 0  9992", "line2": "2 43831  97.3331  58.8796 0011080  38.3123 321.8900 15.25802579389085"}}, "geometry": {"type": "Point", "coordinates": [57.311578330211745, 14.848559646773712]}}, {"type": "Feature", "properties": {"norad_id": 43833, "name": "SAUDISAT 5B", "group": "resource", "lat": 80.04907496568086, "lon": 14.723270070355067, "alt_km": 474.13263846857535, "timestamp": "2025-12-25T07:41:09.380732+00:00", "meta": {"OBJECT_NAME": "SAUDISAT 5B", "OBJECT_ID": "2018-102C", "EPOCH": "2025-12-24T23:27:18.942048", "MEAN_MOTION": 15.26150443, "ECCENTRICITY": 0.00118125, "INCLINATION": 97.3426, "RA_OF_ASC_NODE": 61.6925, "ARG_OF_PERICENTER": 40.2138, "MEAN_ANOMALY": 319.9972, "EPHEMERIS_TYPE": 0, "CLASSIFICATION_TYPE": "U", "NORAD_CAT_ID": 43833, "ELEMENT_SET_NO": 999, "REV_AT_EPOCH": 38920, "BSTAR": 0.0002558097, "MEAN_MOTION_DOT": 6.548e-05, "MEAN_MOTION_DDOT": 0}, "tle": {"line1": "1 43833U 18102C   25358.97730257  .00006548  00000+0  25581-3 0  9992", "line2": "2 43833  97.3426  61.6925 0011812  40.2138 319.9972 15.26150443389207"}}, "geometry": {"type": "Point", "coordinates": [14.723270070355067, 80.04907496568086]}}, {"type": "Feature", "properties": {"norad_id": 44622, "name": "GAOFEN-10R", "group": "resource", "lat": -49.75885496368602, "lon": 117.2751093208829, "alt_km": 630.7323032597851, "timestamp": "2025-12-25T07:41:09.380743+00:00", "meta": {"OBJECT_NAME": "GAOFEN-10R", "OBJECT_ID": "2019-066A", "EPOCH": "2025-12-24T22:33:08.830656", "MEAN_MOTION": 14.82832354, "ECCENTRICITY": 0.00070184, "INCLINATION": 98.0294, "RA_OF_ASC_NODE": 306.4946, "ARG_OF_PERICENTER": 5.9714, "MEAN_ANOMALY": 354.1582, "EPHEMERIS_TYPE": 0, "CLASSIFICATION_TYPE": "U", "NORAD_CAT_ID": 44622, "ELEMENT_SET_NO": 999, "REV_AT_EPOCH": 33655, "BSTAR": 0.00021319024, "MEAN_MOTION_DOT": 1.671e-05, "MEAN_MOTION_DDOT": 0}, "tle": {"line1": "1 44622U 19066A   25358.93968554  .00001671  00000+0  21319-3 0  9995", "line2": "2 44622  98.0294 306.4946 0007018   5.9714 354.1582 14.82832354336556"}}, "geometry": {"type": "Point", "coordinates": [117.2751093208829, -49.75885496368602]}}]}